{"type": "FeatureCollection", "features": [ {"type": "Feature", "properties": {"norad_id": 37704, "name": "FENGYUN 1C DEB", "group": "fengyun-1c-debris", "lat": 15.363668378262114, "lon": 15.394569953460284, "alt_km": 838.6211198036108, "timestamp": "2025-12-27T23:26:37.652252+00:00", "meta": {"OBJECT_NAME": "FENGYUN 1C DEB", "OBJECT_ID": "1999-025ELV", "EPOCH": "2025-12-10T18:58:47.253216", "MEAN_MOTION": 13.70500661, "ECCENTRICITY": 0.02401356, "INCLINATION": 98.3199, "RA_OF_ASC_NODE": 178.1952, "ARG_OF_PERICENTER": 184.1814, "MEAN_ANOMALY": 190.5574, "EPHEMERIS_TYPE": 0, "CLASSIFICATION_TYPE": "U", "NORAD_CAT_ID": 37704, "ELEMENT_SET_NO": 999, "REV_AT_EPOCH": 62338, "BSTAR": 0.0019314833, "MEAN_MOTION_DOT": 2.062e-05, "MEAN_MOTION_DDOT": 0}, "tle": {"line1": "1 37704U 99025ELV 25344.79082469  .00002062  00000+0  19315-2 0  9999", "line2": "2 37704  98.3199 178.1952 0240135 184.1814 190.5574 13.70500661623389"}}, "geometry": {"type": "Point", "coordinates": [15.394569953460284, 15.363668378262114]}}, {"type": "Feature", "properties": {"norad_id": 37707, "name": "FENGYUN 1C DEB", "group": "fengyun-1c-debris", "lat": -62.41431322781129, "lon": 29.58462176909647, "alt_km": 640.1265313440836, "timestamp": "2025-12-27T23:26:37.652262+00:00", "meta": {"OBJECT_NAME": "FENGYUN 1C DEB", "OBJECT_ID": "1999-025ELY", "EPOCH": "2025-12-27T05:51:41.052960", "MEAN_MOTION": 14.56543847, "ECCENTRICITY": 0.0142881, "INCLINATION": 100.221, "RA_OF_ASC_NODE": 8.4858, "ARG_OF_PERICENTER": 343.7302, "MEAN_ANOMALY": 73.9468, "EPHEMERIS_TYPE": 0, "CLASSIFICATION_TYPE": "U", "NORAD_CAT_ID": 37707, "ELEMENT_SET_NO": 999, "REV_AT_EPOCH": 85777, "BSTAR": 0.00078657, "MEAN_MOTION_DOT": 3.949e-05, "MEAN_MOTION_DDOT": 0}, "tle": {"line1": "1 37707U 99025ELY 25361.24422515  .00003949  00000+0  78657-3 0  9991", "line2": "2 37707 100.2210   8.4858 0142881 343.7302  73.9468 14.56543847857779"}}, "geometry": {"type": "Point", "coordinates": [29.58462176909647, -62.41431322781129]}}, {"type": "Feature", "properties": {"norad_id": 37712, "name": "FENGYUN 1C DEB", "group": "fengyun-1c-debris", "lat": 53.16853103969907, "lon": -26.68097473513672, "alt_km": 821.3790721753985, "timestamp": "2025-12-27T23:26:37.652274+00:00", "meta": {"OBJECT_NAME": "FENGYUN 1C DEB", "OBJECT_ID": "1999-025EMD", "EPOCH": "2025-12-27T03:36:53.832384", "MEAN_MOTION": 14.36466505, "ECCENTRICITY": 0.00787049, "INCLINATION": 98.8191, "RA_OF_ASC_NODE": 140.5098, "ARG_OF_PERICENTER": 310.7762, "MEAN_ANOMALY": 224.9396, "EPHEMERIS_TYPE": 0, "CLASSIFICATION_TYPE": "U", "NORAD_CAT_ID": 37712, "ELEMENT_SET_NO": 999, "REV_AT_EPOCH": 64167, "BSTAR": 0.00052004326, "MEAN_MOTION_DOT": 1.532e-05, "MEAN_MOTION_DDOT": 0}, "tle": {"line1": "1 37712U 99025EMD 25361.15062306  .00001532  00000+0  52004-3 0  9999", "line2": "2 37712  98.8191 140.5098 0078704 310.7762 224.9396 14.36466505641676"}}, "geometry": {"type": "Point", "coordinates": [-26.68097473513672, 53.16853103969907]}}, {"type": "Feature", "properties": {"norad_id": 37714, "name": "FENGYUN 1C DEB", "group": "fengyun-1c-debris", "lat": 23.13429752571064, "lon": -62.10277426503011, "alt_km": 798.6237060423919, "timestamp": "2025-12-27T23:26:37.652285+00:00", "meta": {"OBJECT_NAME": "FENGYUN 1C DEB", "OBJECT_ID": "1999-025EMF", "EPOCH": "2025-12-26T06:29:01.760064", "MEAN_MOTION": 14.32362372, "ECCENTRICITY": 0.0047025, "INCLINATION": 98.8924, "RA_OF_ASC_NODE": 112.3124, "ARG_OF_PERICENTER": 44.15, "MEAN_ANOMALY": 316.3421, "EPHEMERIS_TYPE": 0, "CLASSIFICATION_TYPE": "U", "NORAD_CAT_ID": 37714, "ELEMENT_SET_NO": 999, "REV_AT_EPOCH": 57703, "BSTAR": 0.0018475, "MEAN_MOTION_DOT": 5.011e-05, "MEAN_MOTION_DDOT": 0}, "tle": {"line1": "1 37714U 99025EMF 25360.27015926  .00005011  00000+0  18475-2 0  9998", "line2": "2 37714  98.8924 112.3124 0047025  44.1500 316.3421 14.32362372577035"}}, "geometry": {"type": "Point", "coordinates": [-62.10277426503011, 23.13429752571064]}}, {"type": "Feature", "properties": {"norad_id": 37715, "name": "FENGYUN 1C DEB", "group": "fengyun-1c-debris", "lat": 76.8551878186525, "lon": -128.21870623444568, "alt_km": 829.2248153510727, "timestamp": "2025-12-27T23:26:37.652296+00:00", "meta": {"OBJECT_NAME": "FENGYUN 1C DEB", "OBJECT_ID": "1999-025EMG", "EPOCH": "2025-12-25T21:37:21.158112", "MEAN_MOTION": 13.95432374, "ECCENTRICITY": 0.0114565, "INCLINATION": 98.9558, "RA_OF_ASC_NODE": 7.2911, "ARG_OF_PERICENTER": 76.1693, "MEAN_ANOMALY": 40.1928, "EPHEMERIS_TYPE": 0, "CLASSIFICATION_TYPE": "U", "NORAD_CAT_ID": 37715, "ELEMENT_SET_NO": 999, "REV_AT_EPOCH": 57987, "BSTAR": 0.00064796, "MEAN_MOTION_DOT": 8.86e-06, "MEAN_MOTION_DDOT": 0}, "tle": {"line1": "1 37715U 99025EMG 25359.90093933  .00000886  00000+0  64796-3 0  9994", "line2": "2 37715  98.9558   7.2911 0114565  76.1693  40.1928 13.95432374579874"}}, "geometry": {"type": "Point", "coordinates": [-128.21870623444568, 76.8551878186525]}}, {"type": "Feature", "properties": {"norad_id": 37717, "name": "FENGYUN 1C DEB", "group": "fengyun-1c-debris", "lat": 2.298120194767668, "lon": 139.7781561182441, "alt_km": 608.6214894559262, "timestamp": "2025-12-27T23:26:37.652306+00:00", "meta": {"OBJECT_NAME": "FENGYUN 1C DEB", "OBJECT_ID": "1999-025EMJ", "EPOCH": "2025-12-15T15:45:42.031008", "MEAN_MOTION": 14.94137729, "ECCENTRICITY": 0.0058722, "INCLINATION": 98.7255, "RA_OF_ASC_NODE": 305.7435, "ARG_OF_PERICENTER": 93.683, "MEAN_ANOMALY": 83.3944, "EPHEMERIS_TYPE": 0, "CLASSIFICATION_TYPE": "U", "NORAD_CAT_ID": 37717, "ELEMENT_SET_NO": 999, "REV_AT_EPOCH": 89441, "BSTAR": 0.0018768118, "MEAN_MOTION_DOT": 0.00020752, "MEAN_MOTION_DDOT": 0}, "tle": {"line1": "1 37717U 99025EMJ 25349.65673647  .00020752  00000+0  18768-2 0  9994", "line2": "2 37717  98.7255 305.7435 0058722  93.6830  83.3944 14.94137729894417"}}, "geometry": {"type": "Point", "coordinates": [139.7781561182441, 2.298120194767668]}}, {"type": "Feature", "properties": {"norad_id": 37719, "name": "FENGYUN 1C DEB", "group": "fengyun-1c-debris", "lat": -60.356109783764076, "lon": -167.04024032365314, "alt_km": 684.9703110586606, "timestamp": "2025-12-27T23:26:37.652318+00:00", "meta": {"OBJECT_NAME": "FENGYUN 1C DEB", "OBJECT_ID": "1999-025EML", "EPOCH": "2025-12-21T08:06:10.221120", "MEAN_MOTION": 14.56171039, "ECCENTRICITY": 0.00438458, "INCLINATION": 99.5008, "RA_OF_ASC_NODE": 22.5212, "ARG_OF_PERICENTER": 233.5664, "MEAN_ANOMALY": 142.7059, "EPHEMERIS_TYPE": 0, "CLASSIFICATION_TYPE": "U", "NORAD_CAT_ID": 37719, "ELEMENT_SET_NO": 999, "REV_AT_EPOCH": 364, "BSTAR": 0.0012070078, "MEAN_MOTION_DOT": 5.344e-05, "MEAN_MOTION_DDOT": 0}, "tle": {"line1": "1 37719U 99025EML 25355.33761830  .00005344  00000+0  12070-2 0  9990", "line2": "2 37719  99.5008  22.5212 0043845 233.5664 142.7059 14.56171039  3645"}}, "geometry": {"type": "Point", "coordinates": [-167.04024032365314, -60.356109783764076]}}, {"type": "Feature", "properties": {"norad_id": 37902, "name": "FENGYUN 1C DEB", "group": "fengyun-1c-debris", "lat": -62.92093235803826, "lon": 22.978416133189445, "alt_km": 847.247983433047, "timestamp": "2025-12-27T23:26:37.652330+00:00", "meta": {"OBJECT_NAME": "FENGYUN 1C DEB", "OBJECT_ID": "1999-025ENB", "EPOCH": "2025-12-07T14:03:14.833440", "MEAN_MOTION": 13.52640367, "ECCENTRICITY": 0.03237878, "INCLINATION": 98.6837, "RA_OF_ASC_NODE": 202.4677, "ARG_OF_PERICENTER": 320.2654, "MEAN_ANOMALY": 37.5166, "EPHEMERIS_TYPE": 0, "CLASSIFICATION_TYPE": "U", "NORAD_CAT_ID": 37902, "ELEMENT_SET_NO": 999, "REV_AT_EPOCH": 62907, "BSTAR": 0.003775391, "MEAN_MOTION_DOT": 3.447e-05, "MEAN_MOTION_DDOT": 0}, "tle": {"line1": "1 37902U 99025ENB 25341.58558835  .00003447  00000+0  37754-2 0  9993", "line2": "2 37902  98.6837 202.4677 0323787 320.2654  37.5166 13.52640367629073"}}, "geometry": {"type": "Point", "coordinates": [22.978416133189445, -62.92093235803826]}}, {"type": "Feature", "properties": {"norad_id": 37906, "name": "FENGYUN 1C DEB", "group": "fengyun-1c-debris", "lat": -21.467769767123034, "lon": 46.89380535662506, "alt_km": 848.8009215595621, "timestamp": "2025-12-27T23:26:37.652345+00:00", "meta": {"OBJECT_NAME": "FENGYUN 1C DEB", "OBJECT_ID": "1999-025ENF", "EPOCH": "2025-12-24T21:38:01.650336", "MEAN_MOTION": 13.80804491, "ECCENTRICITY": 0.0162343, "INCLINATION": 99.6006, "RA_OF_ASC_NODE": 39.9531, "ARG_OF_PERICENTER": 356.4608, "MEAN_ANOMALY": 182.6575, "EPHEMERIS_TYPE": 0, "CLASSIFICATION_TYPE": "U", "NORAD_CAT_ID": 37906, "ELEMENT_SET_NO": 999, "REV_AT_EPOCH": 59623, "BSTAR": 0.00060461, "MEAN_MOTION_DOT": 6.56e-06, "MEAN_MOTION_DDOT": 0}, "tle": {"line1": "1 37906U 99025ENF 25358.90140799  .00000656  00000+0  60461-3 0  9998", "line2": "2 37906  99.6006  39.9531 0162343 356.4608 182.6575 13.80804491596235"}}, "geometry": {"type": "Point", "coordinates": [46.89380535662506, -21.467769767123034]}}, {"type": "Feature", "properties": {"norad_id": 37907, "name": "FENGYUN 1C DEB", "group": "fengyun-1c-debris", "lat": 70.14183402318521, "lon": -38.27550207964048, "alt_km": 769.4005664164388, "timestamp": "2025-12-27T23:26:37.652356+00:00", "meta": {"OBJECT_NAME": "FENGYUN 1C DEB", "OBJECT_ID": "1999-025ENG", "EPOCH": "2025-12-25T03:28:22.402272", "MEAN_MOTION": 14.23706072, "ECCENTRICITY": 0.0062616, "INCLINATION": 99.0798, "RA_OF_ASC_NODE": 112.5214, "ARG_OF_PERICENTER": 151.8858, "MEAN_ANOMALY": 208.5724, "EPHEMERIS_TYPE": 0, "CLASSIFICATION_TYPE": "U", "NORAD_CAT_ID": 37907, "ELEMENT_SET_NO": 999, "REV_AT_EPOCH": 83449, "BSTAR": 0.0028541, "MEAN_MOTION_DOT": 6.608e-05, "MEAN_MOTION_DDOT": 0}, "tle": {"line1": "1 37907U 99025ENG 25359.14470373  .00006608  00000+0  28541-2 0  9995", "line2": "2 37907  99.0798 112.5214 0062616 151.8858 208.5724 14.23706072834491"}}, "geometry": {"type": "Point", "coordinates": [-38.27550207964048, 70.14183402318521]}}]}